EUTELSAT 21B            
1 38992U 12062B   25280.71203902  .00000132  00000+0  00000+0 0  9997
2 38992   0.0743  16.6119 0002671 183.5861  94.3334  1.00269818 47292
EUTELSAT 70B            
1 39020U 12069A   25280.77862314 -.00000041  00000+0  00000+0 0  9991
2 39020   0.0662   5.2048 0004128 193.1358 169.1410  1.00271561 46975
EUTELSAT 117 WEST A     
1 39122U 13012A   25280.61323855 -.00000011  00000+0  00000+0 0  9995
2 39122   0.0510  59.9356 0002739 140.0384 280.5108  1.00271619 45902
EUTELSAT 7B             
1 39163U 13022A   25280.56643833  .00000051  00000+0  00000+0 0  9999
2 39163   0.0705   3.1714 0001365 308.4035 275.8316  1.00272921 45421
EXPRESS-AT1             
1 39612U 14010A   25280.81631345  .00000081  00000+0  00000+0 0  9992
2 39612   0.0159 231.3078 0000509 245.3644 249.9454  1.00270236 42288
EXPRESS-AT2             
1 39613U 14010B   25280.87658784 -.00000278  00000+0  00000+0 0  9994
2 39613   0.0153 248.0741 0000543 217.4795   6.6568  1.00272489 41971
EUTELSAT 3B             
1 39773U 14030A   25280.83030663  .00000022  00000+0  00000+0 0  9995
2 39773   0.0652   7.4631 0004553 185.8124 125.4621  1.00271460 41536
EUTELSAT 115 WEST B     
1 40425U 15010B   25280.61367190 -.00000023  00000+0  00000+0 0  9996
2 40425   0.0227  49.3482 0000400  41.3380  31.8573  1.00271323 38862
